{
  "type": "FeatureCollection",
  "features": [
    {
      "type": "Feature",
      "properties": {
        "norad_id": 40889,
        "name": "GSAT0205 (GALILEO 9)",
        "group": "galileo",
        "lat": -30.255687090724876,
        "lon": -157.76355360906197,
        "alt_km": 23223.091006704082,
        "timestamp": "2025-12-27T21:25:02.776459+00:00",
        "meta_object_name": "GSAT0205 (GALILEO 9)",
        "meta_object_id": "2015-045A",
        "meta_epoch": "2025-12-23T06:16:38.782272",
        "meta_mean_motion": 1.70473104,
        "meta_eccentricity": 0.00062228,
        "meta_inclination": 55.0001,
        "meta_ra_of_asc_node": 226.4673,
        "meta_arg_of_pericenter": 42.5636,
        "meta_mean_anomaly": 317.5856,
        "meta_ephemeris_type": 0,
        "meta_classification_type": "U",
        "meta_norad_cat_id": 40889,
        "meta_element_set_no": 999,
        "meta_rev_at_epoch": 6401,
        "meta_bstar": 0,
        "meta_mean_motion_dot": 7.3e-07,
        "meta_mean_motion_ddot": 0,
        "tle_line1": "1 40889U 15045A   25357.26155998  .00000073  00000+0  00000+0 0  9999",
        "tle_line2": "2 40889  55.0001 226.4673 0006222  42.5636 317.5856  1.70473104 64013"
      },
      "geometry": {
        "type": "Point",
        "coordinates": [
          -157.76355360906197,
          -30.255687090724876
        ]
      }
    },
    {
      "type": "Feature",
      "properties": {
        "norad_id": 40890,
        "name": "GSAT0206 (GALILEO 10)",
        "group": "galileo",
        "lat": -5.5262951416857,
        "lon": 50.23282211933195,
        "alt_km": 23233.24630774589,
        "timestamp": "2025-12-27T21:25:02.776474+00:00",
        "meta_object_name": "GSAT0206 (GALILEO 10)",
        "meta_object_id": "2015-045B",
        "meta_epoch": "2025-12-27T00:02:25.632384",
        "meta_mean_motion": 1.70473162,
        "meta_eccentricity": 0.000413,
        "meta_inclination": 54.998,
        "meta_ra_of_asc_node": 226.3589,
        "meta_arg_of_pericenter": 41.9933,
        "meta_mean_anomaly": 318.124,
        "meta_ephemeris_type": 0,
        "meta_classification_type": "U",
        "meta_norad_cat_id": 40890,
        "meta_element_set_no": 999,
        "meta_rev_at_epoch": 6410,
        "meta_bstar": 0,
        "meta_mean_motion_dot": 7e-07,
        "meta_mean_motion_ddot": 0,
        "tle_line1": "1 40890U 15045B   25361.00168556  .00000070  00000+0  00000+0 0  9999",
        "tle_line2": "2 40890  54.9980 226.3589 0004130  41.9933 318.1240  1.70473162 64101"
      },
      "geometry": {
        "type": "Point",
        "coordinates": [
          50.23282211933195,
          -5.5262951416857
        ]
      }
    },
    {
      "type": "Feature",
      "properties": {
        "norad_id": 41174,
        "name": "GSAT0209 (GALILEO 12)",
        "group": "galileo",
        "lat": 55.20918050297791,
        "lon": -175.40101099385544,
        "alt_km": 23217.51292400204,
        "timestamp": "2025-12-27T21:25:02.776486+00:00",
        "meta_object_name": "GSAT0209 (GALILEO 12)",
        "meta_object_id": "2015-079A",
        "meta_epoch": "2025-12-27T04:04:26.723136",
        "meta_mean_motion": 1.70474435,
        "meta_eccentricity": 0.0002673,
        "meta_inclination": 55.7206,
        "meta_ra_of_asc_node": 105.9849,
        "meta_arg_of_pericenter": 340.8041,
        "meta_mean_anomaly": 19.1801,
        "meta_ephemeris_type": 0,
        "meta_classification_type": "U",
        "meta_norad_cat_id": 41174,
        "meta_element_set_no": 999,
        "meta_rev_at_epoch": 6184,
        "meta_bstar": 0,
        "meta_mean_motion_dot": 1.5e-07,
        "meta_mean_motion_ddot": 0,
        "tle_line1": "1 41174U 15079A   25361.16975374  .00000015  00000+0  00000+0 0  9992",
        "tle_line2": "2 41174  55.7206 105.9849 0002673 340.8041  19.1801  1.70474435 61842"
      },
      "geometry": {
        "type": "Point",
        "coordinates": [
          -175.40101099385544,
          55.20918050297791
        ]
      }
    },
    {
      "type": "Feature",
      "properties": {
        "norad_id": 41175,
        "name": "GSAT0208 (GALILEO 11)",
        "group": "galileo",
        "lat": -40.391473015598734,
        "lon": 70.54084938629653,
        "alt_km": 23221.794920083437,
        "timestamp": "2025-12-27T21:25:02.776498+00:00",
        "meta_object_name": "GSAT0208 (GALILEO 11)",
        "meta_object_id": "2015-079B",
        "meta_epoch": "2025-12-26T19:16:48.817056",
        "meta_mean_motion": 1.70474041,
        "meta_eccentricity": 0.00020772,
        "meta_inclination": 55.719,
        "meta_ra_of_asc_node": 105.9921,
        "meta_arg_of_pericenter": 340.7165,
        "meta_mean_anomaly": 19.2705,
        "meta_ephemeris_type": 0,
        "meta_classification_type": "U",
        "meta_norad_cat_id": 41175,
        "meta_element_set_no": 999,
        "meta_rev_at_epoch": 6225,
        "meta_bstar": 0,
        "meta_mean_motion_dot": 1.7e-07,
        "meta_mean_motion_ddot": 0,
        "tle_line1": "1 41175U 15079B   25360.80334279  .00000017  00000+0  00000+0 0  9998",
        "tle_line2": "2 41175  55.7190 105.9921 0002077 340.7165  19.2705  1.70474041 62253"
      },
      "geometry": {
        "type": "Point",
        "coordinates": [
          70.54084938629653,
          -40.391473015598734
        ]
      }
    },
    {
      "type": "Feature",
      "properties": {
        "norad_id": 41549,
        "name": "GSAT0211 (GALILEO 14)",
        "group": "galileo",
        "lat": -40.442547521369946,
        "lon": 82.84012317047231,
        "alt_km": 23236.63306103216,
        "timestamp": "2025-12-27T21:25:02.776510+00:00",
        "meta_object_name": "GSAT0211 (GALILEO 14)",
        "meta_object_id": "2016-030A",
        "meta_epoch": "2025-12-25T18:06:09.128448",
        "meta_mean_motion": 1.70473226,
        "meta_eccentricity": 0.00039908,
        "meta_inclination": 55.1481,
        "meta_ra_of_asc_node": 226.465,
        "meta_arg_of_pericenter": 16.0221,
        "meta_mean_anomaly": 344.0794,
        "meta_ephemeris_type": 0,
        "meta_classification_type": "U",
        "meta_norad_cat_id": 41549,
        "meta_element_set_no": 999,
        "meta_rev_at_epoch": 5971,
        "meta_bstar": 0,
        "meta_mean_motion_dot": 7e-07,
        "meta_mean_motion_ddot": 0,
        "tle_line1": "1 41549U 16030A   25359.75427232  .00000070  00000+0  00000+0 0  9994",
        "tle_line2": "2 41549  55.1481 226.4650 0003990  16.0221 344.0794  1.70473226 59712"
      },
      "geometry": {
        "type": "Point",
        "coordinates": [
          82.84012317047231,
          -40.442547521369946
        ]
      }
    },
    {
      "type": "Feature",
      "properties": {
        "norad_id": 41550,
        "name": "GSAT0210 (GALILEO 13)",
        "group": "galileo",
        "lat": 52.16368970584285,
        "lon": -69.83530066583005,
        "alt_km": 23216.896103169056,
        "timestamp": "2025-12-27T21:25:02.776522+00:00",
        "meta_object_name": "GSAT0210 (GALILEO 13)",
        "meta_object_id": "2016-030B",
        "meta_epoch": "2025-12-26T00:16:47.841312",
        "meta_mean_motion": 1.70473562,
        "meta_eccentricity": 5.77e-05,
        "meta_inclination": 55.1475,
        "meta_ra_of_asc_node": 226.456,
        "meta_arg_of_pericenter": 190.7717,
        "meta_mean_anomaly": 169.315,
        "meta_ephemeris_type": 0,
        "meta_classification_type": "U",
        "meta_norad_cat_id": 41550,
        "meta_element_set_no": 999,
        "meta_rev_at_epoch": 5971,
        "meta_bstar": 0,
        "meta_mean_motion_dot": 7e-07,
        "meta_mean_motion_ddot": 0,
        "tle_line1": "1 41550U 16030B   25360.01166483  .00000070  00000+0  00000+0 0  9995",
        "tle_line2": "2 41550  55.1475 226.4560 0000577 190.7717 169.3150  1.70473562 59712"
      },
      "geometry": {
        "type": "Point",
        "coordinates": [
          -69.83530066583005,
          52.16368970584285
        ]
      }
    },
    {
      "type": "Feature",
      "properties": {
        "norad_id": 41859,
        "name": "GSAT0207 (GALILEO 15)",
        "group": "galileo",
        "lat": -54.87453265325102,
        "lon": 4.441491028275193,
        "alt_km": 23223.786927240428,
        "timestamp": "2025-12-27T21:25:02.776534+00:00",
        "meta_object_name": "GSAT0207 (GALILEO 15)",
        "meta_object_id": "2016-069A",
        "meta_epoch": "2025-12-22T04:24:39.710016",
        "meta_mean_motion": 1.70474442,
        "meta_eccentricity": 0.00024396,
        "meta_inclination": 55.3874,
        "meta_ra_of_asc_node": 105.9888,
        "meta_arg_of_pericenter": 317.4324,
        "meta_mean_anomaly": 42.5257,
        "meta_ephemeris_type": 0,
        "meta_classification_type": "U",
        "meta_norad_cat_id": 41859,
        "meta_element_set_no": 999,
        "meta_rev_at_epoch": 5638,
        "meta_bstar": 0,
        "meta_mean_motion_dot": 6e-08,
        "meta_mean_motion_ddot": 0,
        "tle_line1": "1 41859U 16069A   25356.18379294  .00000006  00000+0  00000+0 0  9997",
        "tle_line2": "2 41859  55.3874 105.9888 0002439 317.4324  42.5257  1.70474442 56382"
      },
      "geometry": {
        "type": "Point",
        "coordinates": [
          4.441491028275193,
          -54.87453265325102
        ]
      }
    }
  ]
}